{
  "type": "FeatureCollection",
  "features": [
    {
      "type": "Feature",
      "properties": {
        "norad_id": 34997,
        "name": "COSMOS 2251 DEB",
        "group": "cosmos-2251-debris",
        "lat": -22.592638032358526,
        "lon": -36.34625130578887,
        "alt_km": 684.965608632293,
        "timestamp": "2025-12-02T10:50:47.671459+00:00",
        "meta_object_name": "COSMOS 2251 DEB",
        "meta_object_id": "1993-036AFV",
        "meta_epoch": "2025-11-29T18:09:59.976288",
        "meta_mean_motion": 14.45289096,
        "meta_eccentricity": 0.00981723,
        "meta_inclination": 73.8805,
        "meta_ra_of_asc_node": 335.6343,
        "meta_arg_of_pericenter": 312.7593,
        "meta_mean_anomaly": 46.5333,
        "meta_ephemeris_type": 0,
        "meta_classification_type": "U",
        "meta_norad_cat_id": 34997,
        "meta_element_set_no": 999,
        "meta_rev_at_epoch": 70559,
        "meta_bstar": 0.0014679127,
        "meta_mean_motion_dot": 5.442e-05,
        "meta_mean_motion_ddot": 0,
        "tle_line1": "1 34997U 93036AFV 25333.75694417  .00005442  00000+0  14679-2 0  9995",
        "tle_line2": "2 34997  73.8805 335.6343 0098172 312.7593  46.5333 14.45289096705597"
      },
      "geometry": {
        "type": "Point",
        "coordinates": [
          -36.34625130578887,
          -22.592638032358526
        ]
      }
    },
    {
      "type": "Feature",
      "properties": {
        "norad_id": 34998,
        "name": "COSMOS 2251 DEB",
        "group": "cosmos-2251-debris",
        "lat": 68.30287175898859,
        "lon": -134.58111337036917,
        "alt_km": 726.0835982727531,
        "timestamp": "2025-12-02T10:50:47.671470+00:00",
        "meta_object_name": "COSMOS 2251 DEB",
        "meta_object_id": "1993-036AFW",
        "meta_epoch": "2025-12-01T00:24:24.028128",
        "meta_mean_motion": 14.49204585,
        "meta_eccentricity": 0.00207467,
        "meta_inclination": 74.0099,
        "meta_ra_of_asc_node": 182.0038,
        "meta_arg_of_pericenter": 328.8947,
        "meta_mean_anomaly": 182.5141,
        "meta_ephemeris_type": 0,
        "meta_classification_type": "U",
        "meta_norad_cat_id": 34998,
        "meta_element_set_no": 999,
        "meta_rev_at_epoch": 87250,
        "meta_bstar": 0.00053250873,
        "meta_mean_motion_dot": 2.006e-05,
        "meta_mean_motion_ddot": 0,
        "tle_line1": "1 34998U 93036AFW 25335.01694477  .00002006  00000+0  53251-3 0  9996",
        "tle_line2": "2 34998  74.0099 182.0038 0020746 328.8947 182.5141 14.49204585872502"
      },
      "geometry": {
        "type": "Point",
        "coordinates": [
          -134.58111337036917,
          68.30287175898859
        ]
      }
    },
    {
      "type": "Feature",
      "properties": {
        "norad_id": 35000,
        "name": "COSMOS 2251 DEB",
        "group": "cosmos-2251-debris",
        "lat": -73.8833878593444,
        "lon": 138.40292739598425,
        "alt_km": 374.92258839671285,
        "timestamp": "2025-12-02T10:50:47.671480+00:00",
        "meta_object_name": "COSMOS 2251 DEB",
        "meta_object_id": "1993-036AFY",
        "meta_epoch": "2025-12-01T03:01:08.937696",
        "meta_mean_motion": 15.64973748,
        "meta_eccentricity": 0.00107373,
        "meta_inclination": 74.0059,
        "meta_ra_of_asc_node": 224.4619,
        "meta_arg_of_pericenter": 189.9912,
        "meta_mean_anomaly": 170.1097,
        "meta_ephemeris_type": 0,
        "meta_classification_type": "U",
        "meta_norad_cat_id": 35000,
        "meta_element_set_no": 999,
        "meta_rev_at_epoch": 88332,
        "meta_bstar": 0.0058109544,
        "meta_mean_motion_dot": 0.00615456,
        "meta_mean_motion_ddot": 0,
        "tle_line1": "1 35000U 93036AFY 25335.12579789  .00615456  00000+0  58110-2 0  9998",
        "tle_line2": "2 35000  74.0059 224.4619 0010737 189.9912 170.1097 15.64973748883323"
      },
      "geometry": {
        "type": "Point",
        "coordinates": [
          138.40292739598425,
          -73.8833878593444
        ]
      }
    },
    {
      "type": "Feature",
      "properties": {
        "norad_id": 35012,
        "name": "COSMOS 2251 DEB",
        "group": "cosmos-2251-debris",
        "lat": -4.665437016047839,
        "lon": -47.72245418586483,
        "alt_km": 741.4466952756102,
        "timestamp": "2025-12-02T10:50:47.671490+00:00",
        "meta_object_name": "COSMOS 2251 DEB",
        "meta_object_id": "1993-036AFZ",
        "meta_epoch": "2025-11-29T10:33:51.837120",
        "meta_mean_motion": 14.45521065,
        "meta_eccentricity": 0.0081636,
        "meta_inclination": 74.0181,
        "meta_ra_of_asc_node": 136.5568,
        "meta_arg_of_pericenter": 279.5143,
        "meta_mean_anomaly": 79.6796,
        "meta_ephemeris_type": 0,
        "meta_classification_type": "U",
        "meta_norad_cat_id": 35012,
        "meta_element_set_no": 999,
        "meta_rev_at_epoch": 87369,
        "meta_bstar": 0.00015191388,
        "meta_mean_motion_dot": 5.29e-06,
        "meta_mean_motion_ddot": 0,
        "tle_line1": "1 35012U 93036AFZ 25333.44018330  .00000529  00000+0  15191-3 0  9996",
        "tle_line2": "2 35012  74.0181 136.5568 0081636 279.5143  79.6796 14.45521065873693"
      },
      "geometry": {
        "type": "Point",
        "coordinates": [
          -47.72245418586483,
          -4.665437016047839
        ]
      }
    },
    {
      "type": "Feature",
      "properties": {
        "norad_id": 35014,
        "name": "COSMOS 2251 DEB",
        "group": "cosmos-2251-debris",
        "lat": -70.35627032367803,
        "lon": 10.183640397695523,
        "alt_km": 648.8714251647034,
        "timestamp": "2025-12-02T10:50:47.671500+00:00",
        "meta_object_name": "COSMOS 2251 DEB",
        "meta_object_id": "1993-036AGB",
        "meta_epoch": "2025-11-29T00:10:14.201184",
        "meta_mean_motion": 14.74716562,
        "meta_eccentricity": 0.00081798,
        "meta_inclination": 73.9988,
        "meta_ra_of_asc_node": 70.4329,
        "meta_arg_of_pericenter": 241.0886,
        "meta_mean_anomaly": 118.9467,
        "meta_ephemeris_type": 0,
        "meta_classification_type": "U",
        "meta_norad_cat_id": 35014,
        "meta_element_set_no": 999,
        "meta_rev_at_epoch": 71134,
        "meta_bstar": 0.0017863262,
        "meta_mean_motion_dot": 0.00011934,
        "meta_mean_motion_ddot": 0,
        "tle_line1": "1 35014U 93036AGB 25333.00710881  .00011934  00000+0  17863-2 0  9999",
        "tle_line2": "2 35014  73.9988  70.4329 0008179 241.0886 118.9467 14.74716562711343"
      },
      "geometry": {
        "type": "Point",
        "coordinates": [
          10.183640397695523,
          -70.35627032367803
        ]
      }
    },
    {
      "type": "Feature",
      "properties": {
        "norad_id": 35015,
        "name": "COSMOS 2251 DEB",
        "group": "cosmos-2251-debris",
        "lat": -73.46188926753618,
        "lon": 178.21190288467173,
        "alt_km": 787.976878994773,
        "timestamp": "2025-12-02T10:50:47.671511+00:00",
        "meta_object_name": "COSMOS 2251 DEB",
        "meta_object_id": "1993-036AGC",
        "meta_epoch": "2025-12-01T12:49:23.800800",
        "meta_mean_motion": 14.46768601,
        "meta_eccentricity": 0.00742089,
        "meta_inclination": 73.9481,
        "meta_ra_of_asc_node": 255.7738,
        "meta_arg_of_pericenter": 127.6207,
        "meta_mean_anomaly": 48.46,
        "meta_ephemeris_type": 0,
        "meta_classification_type": "U",
        "meta_norad_cat_id": 35015,
        "meta_element_set_no": 999,
        "meta_rev_at_epoch": 65278,
        "meta_bstar": 0.00081419309,
        "meta_mean_motion_dot": 3.023e-05,
        "meta_mean_motion_ddot": 0,
        "tle_line1": "1 35015U 93036AGC 25335.53430325  .00003023  00000+0  81419-3 0  9991",
        "tle_line2": "2 35015  73.9481 255.7738 0074208 127.6207  48.4600 14.46768601652784"
      },
      "geometry": {
        "type": "Point",
        "coordinates": [
          178.21190288467173,
          -73.46188926753618
        ]
      }
    },
    {
      "type": "Feature",
      "properties": {
        "norad_id": 35016,
        "name": "COSMOS 2251 DEB",
        "group": "cosmos-2251-debris",
        "lat": 11.829557379215245,
        "lon": -43.130263638509064,
        "alt_km": 838.5512667267967,
        "timestamp": "2025-12-02T10:50:47.671521+00:00",
        "meta_object_name": "COSMOS 2251 DEB",
        "meta_object_id": "1993-036AGD",
        "meta_epoch": "2025-12-01T17:14:22.849728",
        "meta_mean_motion": 14.35019887,
        "meta_eccentricity": 0.0115074,
        "meta_inclination": 73.9296,
        "meta_ra_of_asc_node": 314.7615,
        "meta_arg_of_pericenter": 233.9962,
        "meta_mean_anomaly": 309.1499,
        "meta_ephemeris_type": 0,
        "meta_classification_type": "U",
        "meta_norad_cat_id": 35016,
        "meta_element_set_no": 999,
        "meta_rev_at_epoch": 86624,
        "meta_bstar": 0.00042108,
        "meta_mean_motion_dot": 1.264e-05,
        "meta_mean_motion_ddot": 0,
        "tle_line1": "1 35016U 93036AGD 25335.71832002  .00001264  00000+0  42108-3 0  9997",
        "tle_line2": "2 35016  73.9296 314.7615 0115074 233.9962 309.1499 14.35019887866249"
      },
      "geometry": {
        "type": "Point",
        "coordinates": [
          -43.130263638509064,
          11.829557379215245
        ]
      }
    }
  ]
}